  m_IgnoreNormalsForChartDetection: 0
  m_ImportantGI: 0
  m_SelectedEditorRenderState: 3
  m_MinimumChartSize: 4
  m_AutoUVMaxDistance: 0.5
  m_AutoUVMaxAngle: 89
  m_LightmapParameters: {fileID: 0}
  m_SortingLayerID: 0
  m_SortingOrder: 0
--- !u!33 &33262752084412854
MeshFilter:
  m_ObjectHideFlags: 1
  m_PrefabParentObject: {fileID: 0}
  m_PrefabInternal: {fileID: 100100000}
  m_GameObject: {fileID: 1227903577138236}
  m_Mesh: {fileID: 4300000, guid: 3ab9bf7e20605d84198b6a03ad2e5f4e, type: 3}
--- !u!33 &33438690403894646
MeshFilter:
  m_ObjectHideFlags: 1
  m_PrefabParentObject: {fileID: 0}
  m_PrefabInternal: {fileID: 100100000}
  m_GameObject: {fileID: 1448437272379922}
  m_Mesh: {fileID: 4300010, guid: 7b07e7791d55ebe45877e28618677532, type: 3}
--- !u!33 &33476562478813484
MeshFilter:
  m_ObjectHideFlags: 1
  m_PrefabParentObject: {fileID: 0}
  m_PrefabInternal: {fileID: 100100000}
  m_GameObject: {fileID: 1214527905725596}
  m_Mesh: {fileID: 4300004, guid: 7b07e7791d55ebe45877e28618677532, type: 3}
--- !u!33 &33965334841524472
MeshFilter:
  m_ObjectHideFlags: 1
  m_PrefabParentObject: {fileID: 0}
  m_PrefabInternal: {fileID: 100100000}
  m_GameObject: {fileID: 1102254328136486}
  m_Mesh: {fileID: 4300008, guid: 7b07e7791d55ebe45877e28618677532, type: 3}
--- !u!114 &114019867409497194
MonoBehaviour:
  m_ObjectHideFlags: 1
  m_PrefabParentObject: {fileID: 0}
  m_PrefabInternal: {fileID: 100100000}
  m_GameObject: {fileID: 1075608047867422}
  m_Enabled: 1
  m_EditorHideFlags: 0
  m_Script: {fileID: 11500000, guid: a4f64a29bf435d449a300111aaeb58f8, type: 3}
  m_Name: 
  m_EditorClassIdentifier: 
  SemiMajorAxis: 0.17
  SemiMajorAxisReal: 1.4333647e+9
  Eccentricity: 0
  EccentricityReal: 0.05559913
  ArgumentOfPerigee: 0
  Inclination: 0
  InclinationReal: 0.04336025
  RightAscensionOfAscendingNode: 0
  MeanAnomaly: 0
  Period: 10831.369
  PeriodReal: 10831.37
  Plane: 0
  TrueAnomaly: 0
  Epoch: 2451545
  Reality: 0
  RealitySemiMajorAxisScale: 4.2314006e-11
  Speed: 100
  SpeedMultiplier: 0.1
  TransitionSpeedMultiplier: 1
  MaxIterations: 20
--- !u!114 &114097050688358710
MonoBehaviour:
  m_ObjectHideFlags: 1
  m_PrefabParentObject: {fileID: 0}
  m_PrefabInternal: {fileID: 100100000}
  m_GameObject: {fileID: 1227903577138236}
  m_Enabled: 1
  m_EditorHideFlags: 0
  m_Script: {fileID: 11500000, guid: 81f075d41bf2e0849b35226d49caa003, type: 3}
  m_Name: 
  m_EditorClassIdentifier: 
  Sun: {fileID: 0}
--- !u!114 &114135048455251868
MonoBehaviour:
  m_ObjectHideFlags: 1
  m_PrefabParentObject: {fileID: 0}
  m_PrefabInternal: {fileID: 100100000}
  m_GameObject: {fileID: 1545086526035284}
  m_Enabled: 1
  m_EditorHideFlags: 0
  m_Script: {fileID: 11500000, guid: 11e705904898e9e41b49ee058ee58850, type: 3}
  m_Name: 
  m_EditorClassIdentifier: 
  orbitMaterial: {fileID: 2100000, guid: 3f7446375ec57ca4abdd9781bcb5d89d, type: 2}
  orbitStepCount: 140
  pointOfInterestMarker: {fileID: 0}
  pointOfInterestAngle: 190
  snapPointOfInterestToPosition: 1
--- !u!114 &114273480736148424
MonoBehaviour:
  m_ObjectHideFlags: 1
  m_PrefabParentObject: {fileID: 0}
  m_PrefabInternal: {fileID: 100100000}
  m_GameObject: {fileID: 1075608047867422}
  m_Enabled: 1
  m_EditorHideFlags: 0
  m_Script: {fileID: 11500000, guid: 4c2eeafa42b689a4aaec9a3be3cfef15, type: 3}
  m_Name: 
  m_EditorClassIdentifier: 
  VoiceCommands: []
  SelectionPOITarget: {fileID: 0}
--- !u!114 &114290456107349920
MonoBehaviour:
  m_ObjectHideFlags: 1
  m_PrefabParentObject: {fileID: 0}
  m_PrefabInternal: {fileID: 100100000}
  m_GameObject: {fileID: 1214527905725596}
  m_Enabled: 1
  m_EditorHideFlags: 0
  m_Script: {fileID: 11500000, guid: c5570aff66755cc47a1ed50b86544ccf, type: 3}
  m_Name: 
  m_EditorClassIdentifier: 
  OuterRingRadius: 1
  InnerRingRadius: 0.7
  GlobalScale: 0.025
--- !u!114 &114362230195888672
MonoBehaviour:
  m_ObjectHideFlags: 1
  m_PrefabParentObject: {fileID: 0}
  m_PrefabInternal: {fileID: 100100000}
  m_GameObject: {fileID: 1448437272379922}
  m_Enabled: 1
  m_EditorHideFlags: 0
  m_Script: {fileID: 11500000, guid: 6d14ec0567e8de744b78308336c5fa34, type: 3}
  m_Name: 
  m_EditorClassIdentifier: 
  Sun: {fileID: 0}
--- !u!114 &114367746626278182
MonoBehaviour:
  m_ObjectHideFlags: 1
  m_PrefabParentObject: {fileID: 0}
  m_PrefabInternal: {fileID: 100100000}
  m_GameObject: {fileID: 1075608047867422}
  m_Enabled: 1
  m_EditorHideFlags: 0
  m_Script: {fileID: 11500000, guid: 6f892c269d3682144bd442e2a3391add, type: 3}
  m_Name: 
  m_EditorClassIdentifier: 
--- !u!114 &114534770471773928
MonoBehaviour:
  m_ObjectHideFlags: 1
  m_PrefabParentObject: {fileID: 0}
  m_PrefabInternal: {fileID: 100100000}
  m_GameObject: {fileID: 1075608047867422}
  m_Enabled: 1
  m_EditorHideFlags: 0
  m_Script: {fileID: 11500000, guid: de2906fc648115c4987eaf5c8d397f1f, type: 3}
  m_Name: 
  m_EditorClassIdentifier: 
--- !u!114 &114575306963623166
MonoBehaviour:
  m_ObjectHideFlags: 1
  m_PrefabParentObject: {fileID: 0}
  m_PrefabInternal: {fileID: 100100000}
  m_GameObject: {fileID: 1448437272379922}
  m_Enabled: 1
  m_EditorHideFlags: 0
  m_Script: {fileID: 11500000, guid: fdccc9cc3cb310b4392cc4c57c74c3c8, type: 3}
  m_Name: 
  m_EditorClassIdentifier: 
  rotationOffset: {x: 0, y: -90, z: 0}
  forceToWorldUp: 0
  forceCameraUp: 0
--- !u!114 &114746600267735914
MonoBehaviour:
  m_ObjectHideFlags: 1
  m_PrefabParentObject: {fileID: 0}
  m_PrefabInternal: {fileID: 100100000}
  m_GameObject: {fileID: 1214527905725596}
  m_Enabled: 1
  m_EditorHideFlags: 0
  m_Script: {fileID: 11500000, guid: 6d14ec0567e8de744b78308336c5fa34, type: 3}
  m_Name: 
  m_EditorClassIdentifier: 
  Sun: {fileID: 0}
--- !u!114 &114818930886463616
MonoBehaviour:
  m_ObjectHideFlags: 1
  m_PrefabParentObject: {fileID: 0}
  m_PrefabInternal: {fileID: 100100000}
  m_GameObject: {fileID: 1448661661996802}
  m_Enabled: 1
  m_EditorHideFlags: 0
  m_Script: {fileID: 11500000, guid: c8725130c053f7541b9a408e493e9f91, type: 3}
  m_Name: 
  m_EditorClassIdentifier: 
  VoiceCommands: []
  pointOfInterest: {fileID: 0}
--- !u!114 &114999684585953580
MonoBehaviour:
  m_ObjectHideFlags: 1
  m_PrefabParentObject: {fileID: 0}
  m_PrefabInternal: {fileID: 100100000}
  m_GameObject: {fileID: 1102254328136486}
  m_Enabled: 1
  m_EditorHideFlags: 0
  m_Script: {fileID: 11500000, guid: 6d14ec0567e8de744b78308336c5fa34, type: 3}
  m_Name: 
  m_EditorClassIdentifier: 
  Sun: {fileID: 0}
--- !u!135 &135027743409719882
SphereCollider:
  m_ObjectHideFlags: 1
  m_PrefabParentObject: {fileID: 0}
  m_PrefabInternal: {fileID: 100100000}
  m_GameObject: {fileID: 1214527905725596}
  m_Material: {fileID: 0}
  m_IsTrigger: 0
  m_Enabled: 1
  serializedVersion: 2
  m_Radius: 0.008565574
  m_Center: {x: 0, y: 0, z: 0}
--- !u!205 &205613422932111560
LODGroup:
  m_ObjectHideFlags: 1
  m_PrefabParentObject: {fileID: 0}
  m_PrefabInternal: {fileID: 100100000}
  m_GameObject: {fileID: 1075608047867422}
  serializedVersion: 2
  m_LocalReferencePoint: {x: -0.000000949949, y: 0.0000051259995, z: 0.000044051558}
  m_Size: 0.06623149
  m_FadeMode: 1
  m_AnimateCrossFading: 0
  m_LODs:
  - screenRelativeHeight: 0.027530862
    fadeTransitionWidth: 0.01
    renderers:
    - renderer: {fileID: 23315044689322064}
    - renderer: {fileID: 23925617586722018}
  - screenRelativeHeight: 0.0009895742
    fadeTransitionWidth: 0
    renderers:
    - renderer: {fileID: 23089276782385566}
  m_Enabled: 1
